{
  "type": "FeatureCollection",
  "features": [
    {
      "type": "Feature",
      "properties": {
        "norad_id": 30405,
        "name": "FENGYUN 1C DEB",
        "group": "fengyun-1c-debris",
        "lat": 54.55992881939331,
        "lon": -89.05707904030437,
        "alt_km": 760.2866970999985,
        "timestamp": "2025-12-10T09:57:44.975498+00:00",
        "meta_object_name": "FENGYUN 1C DEB",
        "meta_object_id": "1999-025ADU",
        "meta_epoch": "2025-12-09T23:33:38.040192",
        "meta_mean_motion": 14.28877672,
        "meta_eccentricity": 0.0051503,
        "meta_inclination": 98.7938,
        "meta_ra_of_asc_node": 77.9439,
        "meta_arg_of_pericenter": 161.6348,
        "meta_mean_anomaly": 254.916,
        "meta_ephemeris_type": 0,
        "meta_classification_type": "U",
        "meta_norad_cat_id": 30405,
        "meta_element_set_no": 999,
        "meta_rev_at_epoch": 97356,
        "meta_bstar": 0.0026154,
        "meta_mean_motion_dot": 6.656e-05,
        "meta_mean_motion_ddot": 0,
        "tle_line1": "1 30405U 99025ADU 25343.98169028  .00006656  00000+0  26154-2 0  9999",
        "tle_line2": "2 30405  98.7938  77.9439 0051503 161.6348 254.9160 14.28877672973569"
      },
      "geometry": {
        "type": "Point",
        "coordinates": [
          -89.05707904030437,
          54.55992881939331
        ]
      }
    },
    {
      "type": "Feature",
      "properties": {
        "norad_id": 30406,
        "name": "FENGYUN 1C DEB",
        "group": "fengyun-1c-debris",
        "lat": -52.65694197145651,
        "lon": -113.17852986479366,
        "alt_km": 933.8684120741846,
        "timestamp": "2025-12-10T09:57:44.975508+00:00",
        "meta_object_name": "FENGYUN 1C DEB",
        "meta_object_id": "1999-025ADV",
        "meta_epoch": "2025-12-09T12:07:57.343584",
        "meta_mean_motion": 13.59193496,
        "meta_eccentricity": 0.02830968,
        "meta_inclination": 98.62,
        "meta_ra_of_asc_node": 234.5532,
        "meta_arg_of_pericenter": 8.191,
        "meta_mean_anomaly": 172.8241,
        "meta_ephemeris_type": 0,
        "meta_classification_type": "U",
        "meta_norad_cat_id": 30406,
        "meta_element_set_no": 999,
        "meta_rev_at_epoch": 93122,
        "meta_bstar": 0.0035302827,
        "meta_mean_motion_dot": 3.347e-05,
        "meta_mean_motion_ddot": 0,
        "tle_line1": "1 30406U 99025ADV 25343.50552481  .00003347  00000+0  35303-2 0  9997",
        "tle_line2": "2 30406  98.6200 234.5532 0283096   8.1910 172.8241 13.59193496931223"
      },
      "geometry": {
        "type": "Point",
        "coordinates": [
          -113.17852986479366,
          -52.65694197145651
        ]
      }
    },
    {
      "type": "Feature",
      "properties": {
        "norad_id": 30409,
        "name": "FENGYUN 1C DEB",
        "group": "fengyun-1c-debris",
        "lat": 39.29588148960333,
        "lon": -35.05050653141028,
        "alt_km": 769.6150348242609,
        "timestamp": "2025-12-10T09:57:44.975518+00:00",
        "meta_object_name": "FENGYUN 1C DEB",
        "meta_object_id": "1999-025ADY",
        "meta_epoch": "2025-12-10T04:55:45.280416",
        "meta_mean_motion": 14.0371913,
        "meta_eccentricity": 0.0167896,
        "meta_inclination": 98.4735,
        "meta_ra_of_asc_node": 331.7612,
        "meta_arg_of_pericenter": 12.6974,
        "meta_mean_anomaly": 47.118,
        "meta_ephemeris_type": 0,
        "meta_classification_type": "U",
        "meta_norad_cat_id": 30409,
        "meta_element_set_no": 999,
        "meta_rev_at_epoch": 96394,
        "meta_bstar": 0.0013436,
        "meta_mean_motion_dot": 2.355e-05,
        "meta_mean_motion_ddot": 0,
        "tle_line1": "1 30409U 99025ADY 25344.20538519  .00002355  00000+0  13436-2 0  9995",
        "tle_line2": "2 30409  98.4735 331.7612 0167896  12.6974  47.1180 14.03719130963944"
      },
      "geometry": {
        "type": "Point",
        "coordinates": [
          -35.05050653141028,
          39.29588148960333
        ]
      }
    },
    {
      "type": "Feature",
      "properties": {
        "norad_id": 30411,
        "name": "FENGYUN 1C DEB",
        "group": "fengyun-1c-debris",
        "lat": -52.51829142448279,
        "lon": 63.78538935687274,
        "alt_km": 918.0588838244657,
        "timestamp": "2025-12-10T09:57:44.975534+00:00",
        "meta_object_name": "FENGYUN 1C DEB",
        "meta_object_id": "1999-025AEA",
        "meta_epoch": "2025-12-09T17:30:56.672640",
        "meta_mean_motion": 14.07622531,
        "meta_eccentricity": 0.0122367,
        "meta_inclination": 98.5818,
        "meta_ra_of_asc_node": 254.4913,
        "meta_arg_of_pericenter": 115.1586,
        "meta_mean_anomaly": 246.2334,
        "meta_ephemeris_type": 0,
        "meta_classification_type": "U",
        "meta_norad_cat_id": 30411,
        "meta_element_set_no": 999,
        "meta_rev_at_epoch": 95941,
        "meta_bstar": 0.0022166,
        "meta_mean_motion_dot": 3.969e-05,
        "meta_mean_motion_ddot": 0,
        "tle_line1": "1 30411U 99025AEA 25343.72982260  .00003969  00000+0  22166-2 0  9992",
        "tle_line2": "2 30411  98.5818 254.4913 0122367 115.1586 246.2334 14.07622531959419"
      },
      "geometry": {
        "type": "Point",
        "coordinates": [
          63.78538935687274,
          -52.51829142448279
        ]
      }
    },
    {
      "type": "Feature",
      "properties": {
        "norad_id": 30413,
        "name": "FENGYUN 1C DEB",
        "group": "fengyun-1c-debris",
        "lat": 54.60287489250917,
        "lon": -161.10427120095684,
        "alt_km": 809.8028244018333,
        "timestamp": "2025-12-10T09:57:44.975556+00:00",
        "meta_object_name": "FENGYUN 1C DEB",
        "meta_object_id": "1999-025AEC",
        "meta_epoch": "2025-12-10T03:41:56.044032",
        "meta_mean_motion": 14.3248833,
        "meta_eccentricity": 0.0045574,
        "meta_inclination": 102.0617,
        "meta_ra_of_asc_node": 216.046,
        "meta_arg_of_pericenter": 223.6579,
        "meta_mean_anomaly": 287.7897,
        "meta_ephemeris_type": 0,
        "meta_classification_type": "U",
        "meta_norad_cat_id": 30413,
        "meta_element_set_no": 999,
        "meta_rev_at_epoch": 97102,
        "meta_bstar": 0.0030165,
        "meta_mean_motion_dot": 8.206e-05,
        "meta_mean_motion_ddot": 0,
        "tle_line1": "1 30413U 99025AEC 25344.15412088  .00008206  00000+0  30165-2 0  9995",
        "tle_line2": "2 30413 102.0617 216.0460 0045574 223.6579 287.7897 14.32488330971021"
      },
      "geometry": {
        "type": "Point",
        "coordinates": [
          -161.10427120095684,
          54.60287489250917
        ]
      }
    },
    {
      "type": "Feature",
      "properties": {
        "norad_id": 30414,
        "name": "FENGYUN 1C DEB",
        "group": "fengyun-1c-debris",
        "lat": 47.918462463340546,
        "lon": -28.24869725554223,
        "alt_km": 755.3298496110929,
        "timestamp": "2025-12-10T09:57:44.975576+00:00",
        "meta_object_name": "FENGYUN 1C DEB",
        "meta_object_id": "1999-025AED",
        "meta_epoch": "2025-12-09T09:54:22.648896",
        "meta_mean_motion": 14.34079108,
        "meta_eccentricity": 0.00585357,
        "meta_inclination": 99.0812,
        "meta_ra_of_asc_node": 140.4969,
        "meta_arg_of_pericenter": 198.3555,
        "meta_mean_anomaly": 161.5516,
        "meta_ephemeris_type": 0,
        "meta_classification_type": "U",
        "meta_norad_cat_id": 30414,
        "meta_element_set_no": 999,
        "meta_rev_at_epoch": 97039,
        "meta_bstar": 0.0038263836,
        "meta_mean_motion_dot": 0.00010876,
        "meta_mean_motion_ddot": 0,
        "tle_line1": "1 30414U 99025AED 25343.41276214  .00010876  00000+0  38264-2 0  9997",
        "tle_line2": "2 30414  99.0812 140.4969 0058535 198.3555 161.5516 14.34079108970398"
      },
      "geometry": {
        "type": "Point",
        "coordinates": [
          -28.24869725554223,
          47.918462463340546
        ]
      }
    },
    {
      "type": "Feature",
      "properties": {
        "norad_id": 30415,
        "name": "FENGYUN 1C DEB",
        "group": "fengyun-1c-debris",
        "lat": 41.55245208352237,
        "lon": 35.98991353477568,
        "alt_km": 1103.432349443232,
        "timestamp": "2025-12-10T09:57:44.975593+00:00",
        "meta_object_name": "FENGYUN 1C DEB",
        "meta_object_id": "1999-025AEE",
        "meta_epoch": "2025-12-09T20:02:03.459264",
        "meta_mean_motion": 13.68924286,
        "meta_eccentricity": 0.0238285,
        "meta_inclination": 99.6457,
        "meta_ra_of_asc_node": 44.0786,
        "meta_arg_of_pericenter": 276.7341,
        "meta_mean_anomaly": 144.9216,
        "meta_ephemeris_type": 0,
        "meta_classification_type": "U",
        "meta_norad_cat_id": 30415,
        "meta_element_set_no": 999,
        "meta_rev_at_epoch": 93838,
        "meta_bstar": 0.0018347,
        "meta_mean_motion_dot": 1.884e-05,
        "meta_mean_motion_ddot": 0,
        "tle_line1": "1 30415U 99025AEE 25343.83476226  .00001884  00000+0  18347-2 0  9998",
        "tle_line2": "2 30415  99.6457  44.0786 0238285 276.7341 144.9216 13.68924286938389"
      },
      "geometry": {
        "type": "Point",
        "coordinates": [
          35.98991353477568,
          41.55245208352237
        ]
      }
    }
  ]
}